BEIDOU-3S IGSO-1S       
1 40549U 15019A   26181.78913706 -.00000147  00000+0  00000+0 0  9998
2 40549  49.1687 295.2980 0039177 191.9393 165.8805  1.00249006 41208
NAVSTAR 74 (USA 262)    
1 40730U 15033A   26181.68318009 -.00000006  00000+0  00000+0 0  9994
2 40730  53.9720 266.5298 0115176  30.2516 330.4770  2.00555717 80260
BEIDOU-3S M2S           
1 40748U 15037A   26182.28405951 -.00000066  00000+0  00000+0 0  9993
2 40748  54.8572 301.5607 0008722 257.8028 102.1122  1.86232366 74387
BEIDOU-3S M1S           
1 40749U 15037B   26182.48973792 -.00000065  00000+0  00000+0 0  9998
2 40749  54.8538 301.5415 0003101  62.8434 297.2018  1.86255000 74399
GSAT0206 (GALILEO 10)   
1 40890U 15045B   26182.53529488  .00000074  00000+0  00000+0 0  9998
2 40890  54.9416 221.2080 0001620 340.3144  19.7690  1.70473858 67283
BEIDOU-3S IGSO-2S       
1 40938U 15053A   26181.70325568 -.00000093  00000+0  00000+0 0  9993
2 40938  49.1997 258.6211 0065678 193.2539 174.4507  1.00257046 39492
NAVSTAR 75 (USA 265)    
1 41019U 15062A   26180.74153782 -.00000066  00000+0  00000+0 0  9994
2 41019  56.9678  30.3277 0112244 230.9838 128.0695  2.00567192 78083
GSAT-15                 
1 41028U 15065A   26182.46711985 -.00000247  00000+0  00000+0 0  9994
2 41028   0.0436 255.5440 0004508 184.2497 101.3855  1.00269403 38949
GSAT0209 (GALILEO 12)   
1 41174U 15079A   26179.18392164 -.00000033  00000+0  00000+0 0  9993
2 41174  55.8335 100.9603 0005085 347.1897  12.7761  1.70473803 64966
GSAT0208 (GALILEO 11)   
1 41175U 15079B   26181.16401946 -.00000023  00000+0  00000+0 0  9993
2 41175  55.8332 100.9029 0004721 349.8259  10.1551  1.70473794 65412
IRNSS-1E                
1 41241U 16003A   26180.82733131 -.00000310  00000+0  00000+0 0  9990
2 41241  33.2608  59.5670 0019200 178.7998  89.1855  1.00272765 38208
NAVSTAR 76 (USA 266)    
1 41328U 16007A   26180.83338311 -.00000037  00000+0  00000+0 0  9998
2 41328  55.5312  88.9584 0095643 247.1499 111.8568  2.00551193 76094
COSMOS 2514 [GLONASS-M] 
1 41330U 16008A   26182.36297382 -.00000054  00000+0  00000+0 0  9993
2 41330  65.0124 312.5203 0011819 199.5680 160.3868  2.13102721 80925
BEIDOU-2 IGSO-6         
1 41434U 16021A   26177.11016981 -.00000145  00000+0  00000+0 0  9995
2 41434  60.2385  37.9495 0057558 231.0163 137.2672  1.00258926 37578
IRNSS-1G                
1 41469U 16027A   26182.53894622 -.00000327  00000+0  00000+0 0  9999
2 41469   5.2301  97.1430 0005808   4.7494 141.2172  1.00280378 37322
GSAT0211 (GALILEO 14)   
1 41549U 16030A   26178.94152421  .00000069  00000+0  00000+0 0  9998
2 41549  55.0927 221.3989 0003116 320.4926  39.5816  1.70474008 62858
GSAT0210 (GALILEO 13)   
1 41550U 16030B   26182.13169179  .00000074  00000+0  00000+0 0  9990
2 41550  55.0900 221.3091 0008235 256.6368 103.3630  1.70474036 62903
BEIDOU-2 G7             
1 41586U 16037A   26182.60644942 -.00000344  00000+0  00000+0 0  9995
2 41586   1.7545  69.4297 0006795   3.4234 175.6735  1.00270064  7032
EUTELSAT 117 WEST B     
1 41589U 16038B   26182.47753068 -.00000001  00000+0  00000+0 0  9994
2 41589   0.0045 199.2910 0000120  75.4259  59.7184  1.00272874 36806
GSAT0207 (GALILEO 15)   
1 41859U 16069A   26177.71738502 -.00000038  00000+0  00000+0 0  9995
2 41859  55.5042 100.8225 0005006 333.0982  26.8500  1.70473700 59562
GSAT0212 (GALILEO 16)   
1 41860U 16069B   26179.33057380 -.00000033  00000+0  00000+0 0  9990
2 41860  55.5028 100.7730 0004434   6.1382 353.8467  1.70473934 59849
GSAT0213 (GALILEO 17)   
1 41861U 16069C   26179.11118849 -.00000034  00000+0  00000+0 0  9996
2 41861  55.5047 100.7870 0004537 315.9585  43.9839  1.70474290 59707
GSAT0214 (GALILEO 18)   
1 41862U 16069D   26182.19038912 -.00000017  00000+0  00000+0 0  9992
2 41862  55.5050 100.6945 0003556 328.0660  31.9108  1.70473880 59882
SES-15                  
1 42709U 17026A   26182.34513128  .00000070  00000+0  00000+0 0  9999
2 42709   0.0221 331.7918 0001151 169.2992 133.4012  1.00271672  7576
QZS-2 (MICHIBIKI-2)     
1 42738U 17028A   26182.47193832 -.00000110  00000+0  00000+0 0  9999
2 42738  39.4058 242.9433 0758746 269.4314  79.2051  1.00280245  7764
QZS-3 (MICHIBIKI-3)     
1 42917U 17048A   26182.53842622 -.00000338  00000+0  00000+0 0  9997
2 42917   0.0753 137.4065 0002267 320.8305 142.2185  1.00269544 32407
COSMOS 2522 [GLONASS-M] 
1 42939U 17055A   26181.73143747  .00000080  00000+0  00000+0 0  9995
2 42939  64.0804 191.4232 0010858 240.8313 119.0975  2.13101886 68260
QZS-4 (MICHIBIKI-4)     
1 42965U 17062A   26181.32690646 -.00000331  00000+0  00000+0 0  9992
2 42965  40.1009 343.3188 0746709 268.3129 282.6055  1.00295775 31936
BEIDOU-3 M1             
1 43001U 17069A   26180.48304517 -.00000055  00000+0  00000+0 0  9999
2 43001  56.7025  62.6794 0009888 326.2778  33.7184  1.86231574 58834
BEIDOU-3 M2             
1 43002U 17069B   26179.34790984 -.00000066  00000+0  00000+0 0  9992
2 43002  56.7011  62.7525 0008853 353.2945   6.7468  1.86230827 58802
GSAT0215 (GALILEO 19)   
1 43055U 17079A   26179.16063341  .00000069  00000+0  00000+0 0  9993
2 43055  55.0711 221.2046 0003100 263.9664  96.0952  1.70474711 53174
